UNKNOWN                 
1 85210U 75052    22259.56384691  .00000609  00000+0  63651-3 0  9995
2 85210  99.7840   1.0582 0226522 104.7735 271.2672 13.68619341440150
UNKNOWN                 
1 85217U          22260.46330866  .00001094  00000+0  34701-3 0  9992
2 85217  97.9321  71.9216 0239170  72.2162 290.4961 14.26673400458724
UNKNOWN                 
1 85220U          22259.50540208  .00009813  00000+0  25726-2 0  9995
2 85220  99.4107  98.6456 0162981 180.7477 179.3490 14.41819630461010
UNKNOWN                 
1 85237U          22253.04430891  .00004782  00000+0  11195-2 0  9997
2 85237  65.5430  44.9599 0600486 202.5497 154.8144 13.81436715442953
UNKNOWN                 
1 85238U          22259.17447270  .00000038  00000+0  65821-4 0  9994
2 85238  98.9256 213.9986 0063779 165.3332 209.1060 13.87988222446631
UNKNOWN                 
1 85246U          22258.05279907  .00001737  00000+0  68234-3 0  9996
2 85246  98.0874 354.9546 0238772 177.1397 183.1211 14.16032348455107
UNKNOWN                 
1 85266U          22260.08686128  .00005010  00000+0  48961-2 0  9993
2 85266  62.7635 123.3617 3587272 170.8131 198.2194  7.78667931248558
UNKNOWN                 
1 85283U 78098    22260.16548483  .00009287  00000+0  19008-2 0  9994
2 85283  99.6897 338.1031 0028643 105.9724 254.4631 14.60804094368880
UNKNOWN                 
1 85292U          22257.08811577  .00007925  00000+0  18823-2 0  9997
2 85292  65.8315 190.0437 0061956 225.5254 134.0774 14.53226906 14674
UNKNOWN                 
1 85370U          22260.30460671  .00000884  00000+0  83740-3 0  9996
2 85370  99.9715  26.3238 0010595 230.7301 159.2873 13.84141717445280
UNKNOWN                 
1 85373U          22260.12942226  .00000942  00000+0  77105-3 0  9993
2 85373 100.4137 128.9041 0054447  88.4887  62.7374 13.91939125447193
UNKNOWN                 
1 85383U          22256.71821466  .00004267  00000+0  11482-2 0  9995
2 85383  98.6483 352.9975 0101025 337.1639  22.5074 14.45553939413992
UNKNOWN                 
1 85386U          22259.79256920  .00006499  00000+0  15896-2 0  9998
2 85386  98.6439  10.0921 0109356 258.3492 254.8803 14.49301052464947
UNKNOWN                 
1 87014U          22259.95200922  .00001496  00000+0  26600-2 0  9994
2 87014 100.5237 147.5578 0042998 199.8746 175.0738 13.43800217431618
UNKNOWN                 
1 87029U 99025    22260.10683641  .00000621  00000+0  43478-3 0  9999
2 87029  98.8940 317.3125 0080817 308.8283  50.5687 14.00577568427247
UNKNOWN                 
1 87042U 00055    22259.64553171  .00000237  00000+0  17559-3 0  9994
2 87042  98.8524 323.6259 0045818 174.4785 185.6896 14.04029482387770
UNKNOWN                 
1 87051U 76126    22260.51058404  .00001423  00000+0  50817-3 0  9995
2 87051  65.7309 171.5168 0765824 311.6900  42.0983 13.36805493430054
UNKNOWN                 
1 87054U 75052    22258.52396468  .00001775  00000+0  12209-2 0  9990
2 87054 100.0885 347.6865 0017623 270.9658  88.9484 14.00907499449958
UNKNOWN                 
1 87065U 99025    22260.45641112  .00001017  00000+0  12700-2 0  9997
2 87065  98.6883 266.6136 0340393  88.6315 275.3783 13.44547240357467
UNKNOWN                 
1 87071U 68097    22258.24197928  .00005373  00000+0  21195-2 0  9991
2 87071  61.2231 135.8612 0566615  30.6165 332.6665 13.67053180439546
UNKNOWN                 
1 87074U 77121    22260.38393848  .00000151  00000+0  23780-3 0  9991
2 87074  66.1407 245.3089 0153534 201.4145 158.0450 13.70323953441111
UNKNOWN                 
1 87079U          22260.54819524  .00207272  00000+0  65293-2 0  9997
2 87079  70.2795  81.4103 0010895 148.0345 212.1497 15.31876328477219
UNKNOWN                 
1 87091U          22257.55211664  .00146044  00000+0  29033-2 0  9990
2 87091  65.6841 301.0646 0052404  37.7088 322.7713 15.44737761480197
UNKNOWN                 
1 87113U 76126    22260.16416980  .00004581  00000+0  73959-3 0  9992
2 87113  65.6655 311.1537 0334658 109.1085 288.4888 14.41378462461141
UNKNOWN                 
1 87129U 76077    22260.43241829  .00000060  00000+0  77142-3 0  9998
2 87129 102.3212 320.0062 0032886 103.9490 256.5234 12.42134797399835
UNKNOWN                 
1 87159U          22259.31668009  .00001117  00000+0  13813-2 0  9990
2 87159  90.3133  29.0252 0119089 157.7660 202.8724 13.61575328395408
UNKNOWN                 
1 87163U 76126    22259.33819663  .00001259  00000+0  40260-3 0  9997
2 87163  65.5996 245.3027 0711864 222.3253 132.0740 13.51494812416901
UNKNOWN                 
1 87164U          22260.30801388  .00001965  00000+0  55499-3 0  9994
2 87164  65.2050 111.8187 0147097 196.0812 163.5586 14.42018618464427
UNKNOWN                 
1 87203U          22259.28719098  .00012366  00000+0  25833-2 0  9994
2 87203  98.8773 200.3582 0060171 350.0086   9.9910 14.58869006379937
UNKNOWN                 
1 87204U          22260.60312855  .00001102  00000+0  51768-3 0  9996
2 87204  98.6524 129.6283 0049914 168.6285 191.6033 14.21410053457078
UNKNOWN                 
1 87211U          22257.52697366  .00002122  00000+0  77592-3 0  9990
2 87211  98.9990 177.7517 0069017  45.9451 129.9940 14.32734149537334
UNKNOWN                 
1 87213U 99025    22253.38831423  .00018708  00000+0  18550-2 0  9996
2 87213  99.0377 101.0624 0049259 230.4213 129.2646 14.90938622385332
UNKNOWN                 
1 87214U 70025    22257.10031721  .00000273  00000+0  30862-3 0  9992
2 87214 100.3172 131.5074 0078441  51.4472 309.3673 13.79446649436553
UNKNOWN                 
1 87222U          22248.77970712  .00337348  00000+0  51349-2 0  9990
2 87222  98.9574 238.5369 0019071  31.9682 328.2719 15.53132652569159
UNKNOWN                 
1 87228U 99025    22260.31605549  .00005102  00000+0  17114-2 0  9990
2 87228  98.9304  34.2001 0041774 352.8980   7.1608 14.37210319434600
UNKNOWN                 
1 87235U          22256.19300121  .00002213  00000+0  81372-3 0  9990
2 87235  98.9702  46.2639 0150359  57.3060 304.2518 14.27616374415909
UNKNOWN                 
1 87237U 99025    22256.06634008  .00000270  00000+0  24497-3 0  9993
2 87237  99.4099 290.0361 0104789 240.5171 150.0079 13.90179201446794
UNKNOWN                 
1 87239U 81053    22259.21604824  .00002975  00000+0  12111-2 0  9993
2 87239  82.8859 343.6500 0031563 100.1024 260.3724 14.26956032457860
UNKNOWN                 
1 87245U 71015    22260.03316564  .00004767  00000+0  11281-2 0  9998
2 87245  65.6609 274.5221 0523129 330.6295  57.2756 13.94977973448099
UNKNOWN                 
1 87256U 99025    22245.91834473  .00000459  00000+0  29873-3 0  9996
2 87256  98.8429 312.8069 0044577 168.6227 191.5960 14.06914768415375
UNKNOWN                 
1 87271U 71015    22260.26465344  .00002019  00000+0  46825-3 0  9994
2 87271  65.7720  92.6718 0557104 311.9067  43.5736 13.90958827446235
UNKNOWN                 
1 87280U          22259.74268842  .00000235  00000+0  50153-3 0  9992
2 87280  64.6149 277.1162 0114505 189.6616 170.2221 13.47168836374417
UNKNOWN                 
1 87293U 71015    22260.50436567  .00003640  00000+0  85810-3 0  9998
2 87293  65.9123 343.4205 0528551 272.7628  81.3089 13.94449912447884
UNKNOWN                 
1 87300U 70025    22260.56926430  .00000655  00000+0  53699-3 0  9999
2 87300 100.0828 118.3821 0030133 188.5951 171.4694 13.93491814448157
UNKNOWN                 
1 87304U          22254.29510654  .00000717  00000+0  12847-3 0  9998
2 87304  74.0185 113.7578 0020083  22.6058 337.5992 14.68649366471640
UNKNOWN                 
1 87305U 93036    22259.22677597  .00006966  00000+0  12470-2 0  9991
2 87305  73.9978 344.4784 0033952  56.7782 303.6633 14.66631365300232
UNKNOWN                 
1 87320U 71015    22260.36173201  .00000550  00000+0  41695-3 0  9996
2 87320  66.5994   6.1763 0438270  83.6679 281.4096 13.62646214432247
UNKNOWN                 
1 87334U          22260.49360509  .00005871  00000+0  72105-2 0  9990
2 87334  90.0057 270.9372 0075749 259.8793  99.3815 13.64113991223665
UNKNOWN                 
1 87335U          22260.48704951  .00006015  00000+0  73813-2 0  9991
2 87335  89.9935 269.0926 0081055 233.1035 126.2678 13.63992247223725
UNKNOWN                 
1 87397U 94029    22258.88660767  .00006890  00000+0  10675-2 0  9998
2 87397  81.2383 311.0784 0007028 247.7185 112.3276 14.73096804382834
UNKNOWN                 
1 87405U 81053    22260.26927468  .00001224  00000+0  97690-3 0  9999
2 87405  82.7516 266.4695 0057986 118.3204 242.3826 13.89457527446582
UNKNOWN                 
1 87410U 76077    22260.30759798  .00001889  00000+0  17403-1 0  9998
2 87410 102.2521 199.0277 0207713  24.4749 336.5999 12.20125182392721
UNKNOWN                 
1 87416U 81053    22256.01449525  .00002687  00000+0  10708-2 0  9990
2 87416  82.8331 266.8267 0020545 160.1629 200.0361 14.28171919439013
UNKNOWN                 
1 87423U 99057    22258.94156839  .00216418  00000+0  77555-2 0  9990
2 87423  98.8051 333.5710 0017634  68.6301 291.6814 15.27657570384656
UNKNOWN                 
1 87426U          22260.42527326  .00001717  00000+0  90885-3 0  9998
2 87426  65.7832 256.0376 0081715 199.8732 310.9729 14.14632679454568
UNKNOWN                 
1 87433U          22260.33537630  .00001433  00000+0  28410-2 0  9994
2 87433 100.2053  39.0123 0051286 218.8914 140.8516 13.36584669274415
UNKNOWN                 
1 87448U 70025    22256.98374267  .00000827  00000+0  76735-3 0  9995
2 87448 100.4453 309.7155 0066220  19.8020 340.5680 13.84836354444807
UNKNOWN                 
1 87456U 76126    22259.76710905  .00004505  00000+0  77648-3 0  9995
2 87456  65.7902 284.4075 0621812 245.7361 107.7565 13.88399607445894
UNKNOWN                 
1 87468U 93036    22256.26303910  .00011466  00000+0  12581-2 0  9991
2 87468  74.0129  87.0037 0062632 150.2893 210.1869 14.86315570303542
UNKNOWN                 
1 87491U 99025    22259.19663978  .00009389  00000+0  20961-2 0  9991
2 87491  98.6246 344.7233 0068262 193.6063 166.3295 14.55574147409787
